{"type": "FeatureCollection", "features": [{"type": "Feature", "geometry": {"type": "Point", "coordinates": [89.9167, 24.2513]}, "properties": {"id": "C01", "group": "mine", "layer": "ambient_semi_urban", "category": "ambient", "tier": "semi-urban", "name": "Tangail town", "division": "Dhaka", "district": "Tangail", "status": "planned", "coord_precision": "approx", "notes": "Existing DoE compact-station town; sub-Dhaka-periphery"}}, {"type": "Feature", "geometry": {"type": "Point", "coordinates": [90.0, 23.85]}, "properties": {"id": "C02", "group": "mine", "layer": "ambient_village", "category": "ambient", "tier": "village", "name": "Manikganj rural union (Singair)", "division": "Dhaka", "district": "Manikganj", "status": "planned", "coord_precision": "approx", "notes": "Brick-kiln-belt rural exposure"}}, {"type": "Feature", "geometry": {"type": "Point", "coordinates": [90.3196, 23.5022]}, "properties": {"id": "C03", "group": "mine", "layer": "ambient_village", "category": "ambient", "tier": "village", "name": "Munshiganj rural union (Tongibari)", "division": "Dhaka", "district": "Munshiganj", "status": "planned", "coord_precision": "approx", "notes": "Char/floodplain rural background"}}, {"type": "Feature", "geometry": {"type": "Point", "coordinates": [91.1809, 23.4607]}, "properties": {"id": "C04", "group": "mine", "layer": "ambient_semi_urban", "category": "ambient", "tier": "semi-urban", "name": "Cumilla city outskirts", "division": "Chattogram", "district": "Cumilla", "status": "planned", "coord_precision": "approx", "notes": "Existing DoE compact-station town"}}, {"type": "Feature", "geometry": {"type": "Point", "coordinates": [91.1, 22.1167]}, "properties": {"id": "C05", "group": "mine", "layer": "ambient_village", "category": "ambient", "tier": "village", "name": "Noakhali coastal rural union (Hatiya)", "division": "Chattogram", "district": "Noakhali", "status": "planned", "coord_precision": "approx", "notes": "Cyclone-exposed, saline, agriculture-dominated"}}, {"type": "Feature", "geometry": {"type": "Point", "coordinates": [90.65, 23.2333]}, "properties": {"id": "C06", "group": "mine", "layer": "ambient_village", "category": "ambient", "tier": "village", "name": "Chandpur rural union (Haimchar)", "division": "Chattogram", "district": "Chandpur", "status": "planned", "coord_precision": "approx", "notes": "Riverine char rural background"}}, {"type": "Feature", "geometry": {"type": "Point", "coordinates": [91.9847, 23.1193]}, "properties": {"id": "C07", "group": "mine", "layer": "ambient_village", "category": "ambient", "tier": "village", "name": "Khagrachari hill village interior", "division": "Chattogram", "district": "Khagrachari", "status": "planned", "coord_precision": "approx", "notes": "True highland background, near-pristine target site"}}, {"type": "Feature", "geometry": {"type": "Point", "coordinates": [89.3776, 24.8465]}, "properties": {"id": "C08", "group": "mine", "layer": "ambient_semi_urban", "category": "ambient", "tier": "semi-urban", "name": "Bogura city outskirts", "division": "Rajshahi", "district": "Bogura", "status": "planned", "coord_precision": "approx", "notes": "Existing DoE compact-station town"}}, {"type": "Feature", "geometry": {"type": "Point", "coordinates": [89.0227, 25.0968]}, "properties": {"id": "C09", "group": "mine", "layer": "ambient_semi_urban", "category": "ambient", "tier": "semi-urban", "name": "Joypurhat town", "division": "Rajshahi", "district": "Joypurhat", "status": "planned", "coord_precision": "approx", "notes": "Agricultural-residue burning influence"}}, {"type": "Feature", "geometry": {"type": "Point", "coordinates": [88.9318, 24.7936]}, "properties": {"id": "C10", "group": "mine", "layer": "ambient_village", "category": "ambient", "tier": "village", "name": "Naogaon rural union (interior)", "division": "Rajshahi", "district": "Naogaon", "status": "planned", "coord_precision": "approx", "notes": "Dust/agri-residue rural background, driest zone"}}, {"type": "Feature", "geometry": {"type": "Point", "coordinates": [89.2372, 24.0064]}, "properties": {"id": "C11", "group": "mine", "layer": "ambient_village", "category": "ambient", "tier": "village", "name": "Pabna rural union (Bera)", "division": "Rajshahi", "district": "Pabna", "status": "planned", "coord_precision": "approx", "notes": "Jamuna char-belt rural regime"}}, {"type": "Feature", "geometry": {"type": "Point", "coordinates": [89.7895, 22.6602]}, "properties": {"id": "C12", "group": "mine", "layer": "ambient_semi_urban", "category": "ambient", "tier": "semi-urban", "name": "Bagerhat town", "division": "Khulna", "district": "Bagerhat", "status": "planned", "coord_precision": "approx", "notes": "Existing DoE compact-station town"}}, {"type": "Feature", "geometry": {"type": "Point", "coordinates": [89.2167, 23.1667]}, "properties": {"id": "C13", "group": "mine", "layer": "ambient_semi_urban", "category": "ambient", "tier": "semi-urban", "name": "Jashore town", "division": "Khulna", "district": "Jashore", "status": "planned", "coord_precision": "approx", "notes": "Urban-periphery contrast, western deltaic zone"}}, {"type": "Feature", "geometry": {"type": "Point", "coordinates": [89.1167, 22.3333]}, "properties": {"id": "C14", "group": "mine", "layer": "ambient_village", "category": "ambient", "tier": "village", "name": "Sundarbans-fringe village (Shyamnagar)", "division": "Khulna", "district": "Satkhira", "status": "planned", "coord_precision": "approx", "notes": "Saline-soil, mangrove-adjacent"}}, {"type": "Feature", "geometry": {"type": "Point", "coordinates": [89.2167, 22.4333]}, "properties": {"id": "C15", "group": "mine", "layer": "ambient_village", "category": "ambient", "tier": "village", "name": "Koyra rural union", "division": "Khulna", "district": "Khulna", "status": "planned", "coord_precision": "approx", "notes": "Saline coastal rural background"}}, {"type": "Feature", "geometry": {"type": "Point", "coordinates": [91.7296, 24.3065]}, "properties": {"id": "C16", "group": "mine", "layer": "ambient_semi_urban", "category": "ambient", "tier": "semi-urban", "name": "Srimangal town", "division": "Sylhet", "district": "Moulvibazar", "status": "planned", "coord_precision": "approx", "notes": "Tea-garden hub, sub-urban, low combustion density"}}, {"type": "Feature", "geometry": {"type": "Point", "coordinates": [91.4156, 24.3745]}, "properties": {"id": "C17", "group": "mine", "layer": "ambient_semi_urban", "category": "ambient", "tier": "semi-urban", "name": "Habiganj town", "division": "Sylhet", "district": "Habiganj", "status": "planned", "coord_precision": "approx", "notes": "Sub-urban tea/agriculture transitional"}}, {"type": "Feature", "geometry": {"type": "Point", "coordinates": [92.15, 25.1333]}, "properties": {"id": "C18", "group": "mine", "layer": "ambient_village", "category": "ambient", "tier": "village", "name": "Tea-estate village (Jaintiapur)", "division": "Sylhet", "district": "Sylhet", "status": "planned", "coord_precision": "approx", "notes": "True rural background under heavy rainfall"}}, {"type": "Feature", "geometry": {"type": "Point", "coordinates": [91.395, 25.0658]}, "properties": {"id": "C19", "group": "mine", "layer": "ambient_village", "category": "ambient", "tier": "village", "name": "Sunamganj haor-fringe village", "division": "Sylhet", "district": "Sunamganj", "status": "planned", "coord_precision": "approx", "notes": "Seasonal wetland/haor regime"}}, {"type": "Feature", "geometry": {"type": "Point", "coordinates": [90.6474, 22.6841]}, "properties": {"id": "C20", "group": "mine", "layer": "ambient_semi_urban", "category": "ambient", "tier": "semi-urban", "name": "Bhola town", "division": "Barishal", "district": "Bhola", "status": "planned", "coord_precision": "approx", "notes": "Estuarine sub-urban contrast"}}, {"type": "Feature", "geometry": {"type": "Point", "coordinates": [90.3296, 22.3596]}, "properties": {"id": "C21", "group": "mine", "layer": "ambient_semi_urban", "category": "ambient", "tier": "semi-urban", "name": "Patuakhali town", "division": "Barishal", "district": "Patuakhali", "status": "planned", "coord_precision": "approx", "notes": "Coastal sub-urban, cyclone-belt"}}, {"type": "Feature", "geometry": {"type": "Point", "coordinates": [90.1121, 22.0953]}, "properties": {"id": "C22", "group": "mine", "layer": "ambient_village", "category": "ambient", "tier": "village", "name": "Barguna rural union", "division": "Barishal", "district": "Barguna", "status": "planned", "coord_precision": "approx", "notes": "Cyclone-exposed coastal rural background"}}, {"type": "Feature", "geometry": {"type": "Point", "coordinates": [89.972, 22.5841]}, "properties": {"id": "C23", "group": "mine", "layer": "ambient_village", "category": "ambient", "tier": "village", "name": "Pirojpur rural union", "division": "Barishal", "district": "Pirojpur", "status": "planned", "coord_precision": "approx", "notes": "Riverine delta rural site"}}, {"type": "Feature", "geometry": {"type": "Point", "coordinates": [90.1987, 22.6406]}, "properties": {"id": "C24", "group": "mine", "layer": "ambient_village", "category": "ambient", "tier": "village", "name": "Jhalokati rural union", "division": "Barishal", "district": "Jhalokati", "status": "planned", "coord_precision": "approx", "notes": "Riverine delta rural background"}}, {"type": "Feature", "geometry": {"type": "Point", "coordinates": [88.6332, 25.6279]}, "properties": {"id": "C25", "group": "mine", "layer": "ambient_semi_urban", "category": "ambient", "tier": "semi-urban", "name": "Dinajpur town", "division": "Rangpur", "district": "Dinajpur", "status": "planned", "coord_precision": "approx", "notes": "Near Barapukuria coal belt"}}, {"type": "Feature", "geometry": {"type": "Point", "coordinates": [89.5281, 25.3288]}, "properties": {"id": "C26", "group": "mine", "layer": "ambient_semi_urban", "category": "ambient", "tier": "semi-urban", "name": "Gaibandha town", "division": "Rangpur", "district": "Gaibandha", "status": "planned", "coord_precision": "approx", "notes": "Jamuna-Teesta confluence sub-urban"}}, {"type": "Feature", "geometry": {"type": "Point", "coordinates": [89.4667, 25.45]}, "properties": {"id": "C27", "group": "mine", "layer": "ambient_village", "category": "ambient", "tier": "village", "name": "Gaibandha rural union (Sundarganj)", "division": "Rangpur", "district": "Gaibandha", "status": "planned", "coord_precision": "approx", "notes": "Brahmaputra char rural floodplain regime"}}, {"type": "Feature", "geometry": {"type": "Point", "coordinates": [88.856, 25.9317]}, "properties": {"id": "C28", "group": "mine", "layer": "ambient_village", "category": "ambient", "tier": "village", "name": "Nilphamari rural union", "division": "Rangpur", "district": "Nilphamari", "status": "planned", "coord_precision": "approx", "notes": "Northern agricultural rural background"}}, {"type": "Feature", "geometry": {"type": "Point", "coordinates": [89.9376, 24.9375]}, "properties": {"id": "C29", "group": "mine", "layer": "ambient_semi_urban", "category": "ambient", "tier": "semi-urban", "name": "Jamalpur town", "division": "Mymensingh", "district": "Jamalpur", "status": "planned", "coord_precision": "approx", "notes": "Brahmaputra-belt sub-urban"}}, {"type": "Feature", "geometry": {"type": "Point", "coordinates": [90.0153, 25.02]}, "properties": {"id": "C30", "group": "mine", "layer": "ambient_semi_urban", "category": "ambient", "tier": "semi-urban", "name": "Sherpur town", "division": "Mymensingh", "district": "Sherpur", "status": "planned", "coord_precision": "approx", "notes": "Garo Hills foothill sub-urban"}}, {"type": "Feature", "geometry": {"type": "Point", "coordinates": [90.728, 24.8819]}, "properties": {"id": "C31", "group": "mine", "layer": "ambient_village", "category": "ambient", "tier": "village", "name": "Netrokona haor-fringe village", "division": "Mymensingh", "district": "Netrokona", "status": "planned", "coord_precision": "approx", "notes": "Haor/wetland rural background"}}, {"type": "Feature", "geometry": {"type": "Point", "coordinates": [90.35, 24.65]}, "properties": {"id": "C32", "group": "mine", "layer": "ambient_village", "category": "ambient", "tier": "village", "name": "Mymensingh rural union (Bhaluka)", "division": "Mymensingh", "district": "Mymensingh", "status": "planned", "coord_precision": "approx", "notes": "Agricultural rural background"}}, {"type": "Feature", "geometry": {"type": "Point", "coordinates": [90.3833, 25.15]}, "properties": {"id": "B01", "group": "mine", "layer": "border", "category": "border", "tier": "border", "name": "Haluaghat (Gobrakura/Karaitoli land port)", "division": "Mymensingh", "district": "Mymensingh", "status": "planned", "coord_precision": "approx", "notes": "Meghalaya/Garo Hills border crossing"}}, {"type": "Feature", "geometry": {"type": "Point", "coordinates": [90.65, 25.1167]}, "properties": {"id": "B02", "group": "mine", "layer": "border", "category": "border", "tier": "border", "name": "Durgapur border area", "division": "Mymensingh", "district": "Netrokona", "status": "planned", "coord_precision": "approx", "notes": "Meghalaya border, Someshwari river crossing"}}, {"type": "Feature", "geometry": {"type": "Point", "coordinates": [89.0667, 26.0167]}, "properties": {"id": "B03", "group": "mine", "layer": "border", "category": "border", "tier": "border", "name": "Burimari border village", "division": "Rangpur", "district": "Lalmonirhat", "status": "planned", "coord_precision": "approx", "notes": "India border, Burimari land port"}}, {"type": "Feature", "geometry": {"type": "Point", "coordinates": [88.5333, 26.35]}, "properties": {"id": "B04", "group": "mine", "layer": "border", "category": "border", "tier": "border", "name": "Panchagarh / Banglabandha", "division": "Rangpur", "district": "Panchagarh", "status": "planned", "coord_precision": "approx", "notes": "Tri-junction border zone, Banglabandha land port"}}, {"type": "Feature", "geometry": {"type": "Point", "coordinates": [89.6361, 25.8054]}, "properties": {"id": "B05", "group": "mine", "layer": "border", "category": "border", "tier": "border", "name": "Kurigram border char", "division": "Rangpur", "district": "Kurigram", "status": "planned", "coord_precision": "approx", "notes": "India border, char/floodplain border belt"}}, {"type": "Feature", "geometry": {"type": "Point", "coordinates": [88.2776, 24.5965]}, "properties": {"id": "B06", "group": "mine", "layer": "border", "category": "border", "tier": "border", "name": "Sona Mosjid border village", "division": "Rajshahi", "district": "Chapainawabganj", "status": "planned", "coord_precision": "approx", "notes": "India border, Sonamasjid land port"}}, {"type": "Feature", "geometry": {"type": "Point", "coordinates": [88.4833, 25.025]}, "properties": {"id": "B07", "group": "mine", "layer": "border", "category": "border", "tier": "border", "name": "Porsha (Nithpur border point)", "division": "Rajshahi", "district": "Naogaon", "status": "planned", "coord_precision": "approx", "notes": "India/West Bengal border, Porsha upazila"}}, {"type": "Feature", "geometry": {"type": "Point", "coordinates": [88.3667, 24.5667]}, "properties": {"id": "B08", "group": "mine", "layer": "border", "category": "border", "tier": "border", "name": "Godagari border area", "division": "Rajshahi", "district": "Rajshahi", "status": "planned", "coord_precision": "approx", "notes": "India border, Padma riverine border stretch"}}, {"type": "Feature", "geometry": {"type": "Point", "coordinates": [88.8833, 22.5167]}, "properties": {"id": "B09", "group": "mine", "layer": "border", "category": "border", "tier": "border", "name": "Satkhira / Bhomra land port", "division": "Khulna", "district": "Satkhira", "status": "planned", "coord_precision": "approx", "notes": "India/West Bengal border, Bhomra land port near Sundarbans"}}, {"type": "Feature", "geometry": {"type": "Point", "coordinates": [88.9167, 23.05]}, "properties": {"id": "B10", "group": "mine", "layer": "border", "category": "border", "tier": "border", "name": "Benapole land port area", "division": "Khulna", "district": "Jashore", "status": "planned", "coord_precision": "approx", "notes": "Major India border crossing, Benapole land port"}}, {"type": "Feature", "geometry": {"type": "Point", "coordinates": [92.0167, 25.1667]}, "properties": {"id": "B11", "group": "mine", "layer": "border", "category": "border", "tier": "border", "name": "Jaflong / Tamabil", "division": "Sylhet", "district": "Sylhet", "status": "planned", "coord_precision": "approx", "notes": "Meghalaya border, Dawki-Tamabil ICP, quarrying dust"}}, {"type": "Feature", "geometry": {"type": "Point", "coordinates": [91.0167, 25.2]}, "properties": {"id": "B12", "group": "mine", "layer": "border", "category": "border", "tier": "border", "name": "Sunamganj border haor area (Tahirpur)", "division": "Sylhet", "district": "Sunamganj", "status": "planned", "coord_precision": "approx", "notes": "Meghalaya border, haor-fringe border zone"}}, {"type": "Feature", "geometry": {"type": "Point", "coordinates": [91.45, 24.1167]}, "properties": {"id": "B13", "group": "mine", "layer": "border", "category": "border", "tier": "border", "name": "Habiganj border-adjacent area (Chunarughat)", "division": "Sylhet", "district": "Habiganj", "status": "planned", "coord_precision": "approx", "notes": "Meghalaya/Tripura border foothills"}}, {"type": "Feature", "geometry": {"type": "Point", "coordinates": [92.3057, 20.8628]}, "properties": {"id": "B14", "group": "mine", "layer": "border", "category": "border", "tier": "border", "name": "Teknaf", "division": "Chattogram", "district": "Cox's Bazar", "status": "planned", "coord_precision": "approx", "notes": "Only Myanmar-facing site in the network"}}, {"type": "Feature", "geometry": {"type": "Point", "coordinates": [92.3667, 21.5167]}, "properties": {"id": "B15", "group": "mine", "layer": "border", "category": "border", "tier": "border", "name": "Naikhongchhari border area", "division": "Chattogram", "district": "Bandarban", "status": "planned", "coord_precision": "approx", "notes": "Myanmar border, hill-tract border crossing"}}, {"type": "Feature", "geometry": {"type": "Point", "coordinates": [90.3782, 23.7625]}, "properties": {"id": "A01", "group": "mine", "layer": "doe_colocation", "category": "doe_colocation", "tier": "urban", "name": "Sangshad Bhaban Sher-e-Bangla Nagar", "division": "Dhaka", "district": "Dhaka", "status": "planned", "coord_precision": "approx", "notes": "Colocation with CAMS-1 reference monitor"}}, {"type": "Feature", "geometry": {"type": "Point", "coordinates": [91.8, 22.3667]}, "properties": {"id": "A02", "group": "mine", "layer": "doe_colocation", "category": "doe_colocation", "tier": "urban", "name": "TV Station Khulshi", "division": "Chattogram", "district": "Chattogram", "status": "planned", "coord_precision": "approx", "notes": "Colocation with CAMS-6 reference monitor"}}, {"type": "Feature", "geometry": {"type": "Point", "coordinates": [88.6042, 24.3745]}, "properties": {"id": "A03", "group": "mine", "layer": "doe_colocation", "category": "doe_colocation", "tier": "urban", "name": "Sopura Rajshahi City", "division": "Rajshahi", "district": "Rajshahi", "status": "planned", "coord_precision": "approx", "notes": "Colocation with CAMS-9 reference monitor"}}, {"type": "Feature", "geometry": {"type": "Point", "coordinates": [89.5403, 22.8456]}, "properties": {"id": "A04", "group": "mine", "layer": "doe_colocation", "category": "doe_colocation", "tier": "urban", "name": "Boyra Khulna City", "division": "Khulna", "district": "Khulna", "status": "planned", "coord_precision": "approx", "notes": "Colocation with CAMS-8 reference monitor"}}, {"type": "Feature", "geometry": {"type": "Point", "coordinates": [91.8687, 24.8949]}, "properties": {"id": "A05", "group": "mine", "layer": "doe_colocation", "category": "doe_colocation", "tier": "urban", "name": "Red Crescent Campus Sylhet City", "division": "Sylhet", "district": "Sylhet", "status": "planned", "coord_precision": "approx", "notes": "Colocation with CAMS-10 reference monitor"}}, {"type": "Feature", "geometry": {"type": "Point", "coordinates": [90.3535, 22.701]}, "properties": {"id": "A06", "group": "mine", "layer": "doe_colocation", "category": "doe_colocation", "tier": "urban", "name": "DFO Office Campus Barishal City", "division": "Barishal", "district": "Barishal", "status": "planned", "coord_precision": "approx", "notes": "Colocation with CAMS-11 compact station"}}, {"type": "Feature", "geometry": {"type": "Point", "coordinates": [89.2752, 25.7439]}, "properties": {"id": "A07", "group": "mine", "layer": "doe_colocation", "category": "doe_colocation", "tier": "urban", "name": "Rangpur City", "division": "Rangpur", "district": "Rangpur", "status": "planned", "coord_precision": "approx", "notes": "Colocation with CAMS-13 compact station"}}, {"type": "Feature", "geometry": {"type": "Point", "coordinates": [90.4203, 24.7471]}, "properties": {"id": "A08", "group": "mine", "layer": "doe_colocation", "category": "doe_colocation", "tier": "urban", "name": "Mymensingh City", "division": "Mymensingh", "district": "Mymensingh", "status": "planned", "coord_precision": "approx", "notes": "Colocation with CAMS-12 compact station"}}, {"type": "Feature", "geometry": {"type": "Point", "coordinates": [90.372603, 23.777394]}, "properties": {"id": "CAMS-1", "group": "existing", "layer": "doe_cams", "network": "DOE CAMS", "operator": "Department of Environment", "name": "Dept of Environment HQ", "city": "Dhaka", "division": "Dhaka", "monitor_type": "reference", "coord_precision": "exact", "source_url": "https://doe.portal.gov.bd", "notes": "Est. 2012; UB/Res; Agargaon; PM10 PM2.5 SO2 CO O3 NOx + met"}}, {"type": "Feature", "geometry": {"type": "Point", "coordinates": [90.388679, 23.75941]}, "properties": {"id": "CAMS-2", "group": "existing", "layer": "doe_cams", "network": "DOE CAMS", "operator": "Department of Environment", "name": "Farmgate", "city": "Dhaka", "division": "Dhaka", "monitor_type": "reference", "coord_precision": "exact", "source_url": "https://doe.portal.gov.bd", "notes": "Est. 2008; Rd/Com"}}, {"type": "Feature", "geometry": {"type": "Point", "coordinates": [90.35541, 23.780775]}, "properties": {"id": "CAMS-3", "group": "existing", "layer": "doe_cams", "network": "DOE CAMS", "operator": "Department of Environment", "name": "Darussalam", "city": "Dhaka", "division": "Dhaka", "monitor_type": "reference", "coord_precision": "exact", "source_url": "https://doe.portal.gov.bd", "notes": "Est. 2012; UB/Com"}}, {"type": "Feature", "geometry": {"type": "Point", "coordinates": [90.422315, 23.994128]}, "properties": {"id": "CAMS-4", "group": "existing", "layer": "doe_cams", "network": "DOE CAMS", "operator": "Department of Environment", "name": "Gazipur", "city": "Gazipur", "division": "Dhaka", "monitor_type": "reference", "coord_precision": "exact", "source_url": "https://doe.portal.gov.bd", "notes": "Est. 2012; SUB"}}, {"type": "Feature", "geometry": {"type": "Point", "coordinates": [90.5072, 23.626079]}, "properties": {"id": "CAMS-5", "group": "existing", "layer": "doe_cams", "network": "DOE CAMS", "operator": "Department of Environment", "name": "Narayanganj", "city": "Narayanganj", "division": "Dhaka", "monitor_type": "reference", "coord_precision": "exact", "source_url": "https://doe.portal.gov.bd", "notes": "Est. 2012; UB/Industry"}}, {"type": "Feature", "geometry": {"type": "Point", "coordinates": [91.800454, 22.360487]}, "properties": {"id": "CAMS-6", "group": "existing", "layer": "doe_cams", "network": "DOE CAMS", "operator": "Department of Environment", "name": "TV Station Khulshi", "city": "Chattogram", "division": "Chattogram", "monitor_type": "reference", "coord_precision": "exact", "source_url": "https://doe.portal.gov.bd", "notes": "Est. 2006; UB"}}, {"type": "Feature", "geometry": {"type": "Point", "coordinates": [91.802336, 22.32302]}, "properties": {"id": "CAMS-7", "group": "existing", "layer": "doe_cams", "network": "DOE CAMS", "operator": "Department of Environment", "name": "Agrabad", "city": "Chattogram", "division": "Chattogram", "monitor_type": "reference", "coord_precision": "exact", "source_url": "https://doe.portal.gov.bd", "notes": "Est. 2012; UB/Res"}}, {"type": "Feature", "geometry": {"type": "Point", "coordinates": [89.529056, 22.835775]}, "properties": {"id": "CAMS-8", "group": "existing", "layer": "doe_cams", "network": "DOE CAMS", "operator": "Department of Environment", "name": "Boyra", "city": "Khulna", "division": "Khulna", "monitor_type": "reference", "coord_precision": "exact", "source_url": "https://doe.portal.gov.bd", "notes": "Est. 2008; UB"}}, {"type": "Feature", "geometry": {"type": "Point", "coordinates": [88.608007, 24.38332]}, "properties": {"id": "CAMS-9", "group": "existing", "layer": "doe_cams", "network": "DOE CAMS", "operator": "Department of Environment", "name": "Sapura", "city": "Rajshahi", "division": "Rajshahi", "monitor_type": "reference", "coord_precision": "exact", "source_url": "https://doe.portal.gov.bd", "notes": "Est. 2008; Rd/Res"}}, {"type": "Feature", "geometry": {"type": "Point", "coordinates": [91.867347, 24.888334]}, "properties": {"id": "CAMS-10", "group": "existing", "layer": "doe_cams", "network": "DOE CAMS", "operator": "Department of Environment", "name": "Red Crescent Campus", "city": "Sylhet", "division": "Sylhet", "monitor_type": "reference", "coord_precision": "exact", "source_url": "https://doe.portal.gov.bd", "notes": "Est. 2012; Rd/UB/Res"}}, {"type": "Feature", "geometry": {"type": "Point", "coordinates": [90.362598, 22.710287]}, "properties": {"id": "CAMS-11", "group": "existing", "layer": "doe_cams", "network": "DOE CAMS", "operator": "Department of Environment", "name": "DFO Office Campus", "city": "Barishal", "division": "Barishal", "monitor_type": "reference", "coord_precision": "exact", "source_url": "https://doe.portal.gov.bd", "notes": "Est. 2012; UB/Res"}}, {"type": "Feature", "geometry": {"type": "Point", "coordinates": [90.402102, 24.762458]}, "properties": {"id": "CAMS-12", "group": "existing", "layer": "doe_cams", "network": "DOE CAMS", "operator": "Department of Environment", "name": "DoE Office Divisional HQ", "city": "Mymensingh", "division": "Mymensingh", "monitor_type": "reference", "coord_precision": "exact", "source_url": "https://doe.portal.gov.bd", "notes": "Est. 2019; UB"}}, {"type": "Feature", "geometry": {"type": "Point", "coordinates": [89.228931, 25.747371]}, "properties": {"id": "CAMS-13", "group": "existing", "layer": "doe_cams", "network": "DOE CAMS", "operator": "Department of Environment", "name": "BTV Rangpur Station", "city": "Rangpur", "division": "Rangpur", "monitor_type": "reference", "coord_precision": "exact", "source_url": "https://doe.portal.gov.bd", "notes": "Est. 2019; UB"}}, {"type": "Feature", "geometry": {"type": "Point", "coordinates": [90.279794, 23.953704]}, "properties": {"id": "CAMS-14", "group": "existing", "layer": "doe_cams", "network": "DOE CAMS", "operator": "Department of Environment", "name": "Atomic Energy Research Institute", "city": "Savar", "division": "Dhaka", "monitor_type": "reference", "coord_precision": "exact", "source_url": "https://doe.portal.gov.bd", "notes": "Est. 2019; SUB"}}, {"type": "Feature", "geometry": {"type": "Point", "coordinates": [90.716598, 23.932456]}, "properties": {"id": "CAMS-15", "group": "existing", "layer": "doe_cams", "network": "DOE CAMS", "operator": "Department of Environment", "name": "Sadar Upazila Complex", "city": "Narsingdi", "division": "Dhaka", "monitor_type": "reference", "coord_precision": "exact", "source_url": "https://doe.portal.gov.bd", "notes": "Est. 2019; SUB"}}, {"type": "Feature", "geometry": {"type": "Point", "coordinates": [91.180671, 23.472988]}, "properties": {"id": "CAMS-16", "group": "existing", "layer": "doe_cams", "network": "DOE CAMS", "operator": "Department of Environment", "name": "Court Area", "city": "Cumilla", "division": "Chattogram", "monitor_type": "reference", "coord_precision": "exact", "source_url": "https://doe.portal.gov.bd", "notes": "Est. 2019; UB"}}, {"type": "Feature", "geometry": {"type": "Point", "coordinates": [89.838819, 23.606411]}, "properties": {"id": "C-CAMS-17", "group": "existing", "layer": "doe_ccams", "network": "DOE C-CAMS", "operator": "Department of Environment", "name": "Sadar Faridpur (Municipal Office)", "city": "Faridpur", "division": "Dhaka", "monitor_type": "reference", "coord_precision": "exact", "source_url": "https://doe.portal.gov.bd", "notes": "Est. 2020; SUB"}}, {"type": "Feature", "geometry": {"type": "Point", "coordinates": [89.20637, 23.162216]}, "properties": {"id": "C-CAMS-18", "group": "existing", "layer": "doe_ccams", "network": "DOE C-CAMS", "operator": "Department of Environment", "name": "Sadar Jashore (Circuit House)", "city": "Jashore", "division": "Khulna", "monitor_type": "reference", "coord_precision": "exact", "source_url": "https://doe.portal.gov.bd", "notes": "Est. 2020; SUB"}}, {"type": "Feature", "geometry": {"type": "Point", "coordinates": [89.04317, 22.315996]}, "properties": {"id": "C-CAMS-19", "group": "existing", "layer": "doe_ccams", "network": "DOE C-CAMS", "operator": "Department of Environment", "name": "Shyamnagar Satkhira", "city": "Satkhira", "division": "Khulna", "monitor_type": "reference", "coord_precision": "exact", "source_url": "https://doe.portal.gov.bd", "notes": "Est. 2020; Rural"}}, {"type": "Feature", "geometry": {"type": "Point", "coordinates": [89.55372, 22.596086]}, "properties": {"id": "C-CAMS-20", "group": "existing", "layer": "doe_ccams", "network": "DOE C-CAMS", "operator": "Department of Environment", "name": "Rampal Bagerhat (Maitree Super Thermal Power Project)", "city": "Bagerhat", "division": "Khulna", "monitor_type": "reference", "coord_precision": "exact", "source_url": "https://doe.portal.gov.bd", "notes": "Est. 2020; Rural/Industrial"}}, {"type": "Feature", "geometry": {"type": "Point", "coordinates": [89.82916, 23.008853]}, "properties": {"id": "C-CAMS-21", "group": "existing", "layer": "doe_ccams", "network": "DOE C-CAMS", "operator": "Department of Environment", "name": "Sadar Gopalganj", "city": "Gopalganj", "division": "Dhaka", "monitor_type": "reference", "coord_precision": "exact", "source_url": "https://doe.portal.gov.bd", "notes": "Est. 2020; SUB"}}, {"type": "Feature", "geometry": {"type": "Point", "coordinates": [89.929357, 24.249796]}, "properties": {"id": "C-CAMS-22", "group": "existing", "layer": "doe_ccams", "network": "DOE C-CAMS", "operator": "Department of Environment", "name": "Sadar Tangail (DoE Office)", "city": "Tangail", "division": "Dhaka", "monitor_type": "reference", "coord_precision": "exact", "source_url": "https://doe.portal.gov.bd", "notes": "Est. 2020; SUB"}}, {"type": "Feature", "geometry": {"type": "Point", "coordinates": [89.361146, 24.861779]}, "properties": {"id": "C-CAMS-23", "group": "existing", "layer": "doe_ccams", "network": "DOE C-CAMS", "operator": "Department of Environment", "name": "Sadar Bogura (DoE Office)", "city": "Bogura", "division": "Rajshahi", "monitor_type": "reference", "coord_precision": "exact", "source_url": "https://doe.portal.gov.bd", "notes": "Est. 2020; SUB"}}, {"type": "Feature", "geometry": {"type": "Point", "coordinates": [90.41121, 23.894174]}, "properties": {"id": "C-CAMS-24", "group": "existing", "layer": "doe_ccams", "network": "DOE C-CAMS", "operator": "Department of Environment", "name": "BSCIC Tongi", "city": "Gazipur", "division": "Dhaka", "monitor_type": "reference", "coord_precision": "exact", "source_url": "https://doe.portal.gov.bd", "notes": "Est. 2020; Com/Industrial"}}, {"type": "Feature", "geometry": {"type": "Point", "coordinates": [90.392797, 23.727591]}, "properties": {"id": "C-CAMS-25", "group": "existing", "layer": "doe_ccams", "network": "DOE C-CAMS", "operator": "Department of Environment", "name": "Dept of Chemical Engineering BUET", "city": "Dhaka", "division": "Dhaka", "monitor_type": "reference", "coord_precision": "exact", "source_url": "https://doe.portal.gov.bd", "notes": "Est. 2020; UB"}}, {"type": "Feature", "geometry": {"type": "Point", "coordinates": [91.109769, 23.974371]}, "properties": {"id": "C-CAMS-26", "group": "existing", "layer": "doe_ccams", "network": "DOE C-CAMS", "operator": "Department of Environment", "name": "Sadar Brahmanbaria (Municipal Office)", "city": "Brahmanbaria", "division": "Chattogram", "monitor_type": "reference", "coord_precision": "exact", "source_url": "https://doe.portal.gov.bd", "notes": "Est. 2020; SUB"}}, {"type": "Feature", "geometry": {"type": "Point", "coordinates": [91.381305, 23.006297]}, "properties": {"id": "C-CAMS-27", "group": "existing", "layer": "doe_ccams", "network": "DOE C-CAMS", "operator": "Department of Environment", "name": "Sadar Feni (DoE Office)", "city": "Feni", "division": "Chattogram", "monitor_type": "reference", "coord_precision": "exact", "source_url": "https://doe.portal.gov.bd", "notes": "Est. 2020; SUB"}}, {"type": "Feature", "geometry": {"type": "Point", "coordinates": [91.096966, 22.881148]}, "properties": {"id": "C-CAMS-28", "group": "existing", "layer": "doe_ccams", "network": "DOE C-CAMS", "operator": "Department of Environment", "name": "Maijdi Bazar Noakhali (DoE Office)", "city": "Noakhali", "division": "Chattogram", "monitor_type": "reference", "coord_precision": "exact", "source_url": "https://doe.portal.gov.bd", "notes": "Est. 2020; SUB"}}, {"type": "Feature", "geometry": {"type": "Point", "coordinates": [91.818054, 22.372838]}, "properties": {"id": "C-CAMS-29", "group": "existing", "layer": "doe_ccams", "network": "DOE C-CAMS", "operator": "Department of Environment", "name": "BSRM Nasirabad", "city": "Chattogram", "division": "Chattogram", "monitor_type": "reference", "coord_precision": "exact", "source_url": "https://doe.portal.gov.bd", "notes": "Est. 2020; UB/Industrial"}}, {"type": "Feature", "geometry": {"type": "Point", "coordinates": [91.971083, 21.442208]}, "properties": {"id": "C-CAMS-30", "group": "existing", "layer": "doe_ccams", "network": "DOE C-CAMS", "operator": "Department of Environment", "name": "Saymon Road Sadar Cox's Bazar (DoE Office)", "city": "Cox's Bazar", "division": "Chattogram", "monitor_type": "reference", "coord_precision": "exact", "source_url": "https://doe.portal.gov.bd", "notes": "Est. 2020; SUB"}}, {"type": "Feature", "geometry": {"type": "Point", "coordinates": [90.409142, 23.724075]}, "properties": {"id": "C-CAMS-31", "group": "existing", "layer": "doe_ccams", "network": "DOE C-CAMS", "operator": "Department of Environment", "name": "Nagar Bhaban DSCC", "city": "Dhaka", "division": "Dhaka", "monitor_type": "reference", "coord_precision": "exact", "source_url": "https://doe.portal.gov.bd", "notes": "Est. 2020; UB/Com"}}, {"type": "Feature", "geometry": {"type": "Point", "coordinates": [90.4267, 23.7975]}, "properties": {"id": "USEMB-1", "group": "existing", "layer": "us_embassy", "network": "US Embassy / AirNow", "operator": "US Department of State", "name": "US Embassy Dhaka (BAM-1020)", "city": "Dhaka", "division": "Dhaka", "monitor_type": "reference", "coord_precision": "approx", "source_url": "https://bd.usembassy.gov/air-quality-data/", "notes": "Beta-attenuation monitor on embassy compound, Madani Ave Baridhara; hourly PM2.5 on airnow.gov"}}, {"type": "Feature", "geometry": {"type": "Point", "coordinates": [90.372603, 23.777394]}, "properties": {"id": "GAIA-01", "group": "existing", "layer": "gaia", "network": "GAIA A12 (aqicn)", "operator": "DoE + World Air Quality Index project", "name": "Department of Environment", "city": "Dhaka", "division": "Dhaka", "monitor_type": "low-cost", "coord_precision": "approx", "source_url": "https://aqicn.org/network/doebd/", "notes": "Co-located at CAMS-1 Agargaon"}}, {"type": "Feature", "geometry": {"type": "Point", "coordinates": [90.388679, 23.75941]}, "properties": {"id": "GAIA-02", "group": "existing", "layer": "gaia", "network": "GAIA A12 (aqicn)", "operator": "DoE + World Air Quality Index project", "name": "Bangladesh Agricultural Research Council (BARC)", "city": "Dhaka", "division": "Dhaka", "monitor_type": "low-cost", "coord_precision": "approx", "source_url": "https://aqicn.org/network/doebd/", "notes": "Co-located near CAMS-2 Farmgate"}}, {"type": "Feature", "geometry": {"type": "Point", "coordinates": [90.351, 23.784]}, "properties": {"id": "GAIA-03", "group": "existing", "layer": "gaia", "network": "GAIA A12 (aqicn)", "operator": "DoE + World Air Quality Index project", "name": "National Institute of Mass Communication", "city": "Dhaka", "division": "Dhaka", "monitor_type": "low-cost", "coord_precision": "approx", "source_url": "https://aqicn.org/network/doebd/", "notes": "Darussalam/Gabtali area, near CAMS-3"}}, {"type": "Feature", "geometry": {"type": "Point", "coordinates": [90.4203, 23.968]}, "properties": {"id": "GAIA-04", "group": "existing", "layer": "gaia", "network": "GAIA A12 (aqicn)", "operator": "DoE + World Air Quality Index project", "name": "Dhirasram Road", "city": "Gazipur", "division": "Dhaka", "monitor_type": "low-cost", "coord_precision": "approx", "source_url": "https://aqicn.org/network/doebd/", "notes": "South Gazipur"}}, {"type": "Feature", "geometry": {"type": "Point", "coordinates": [90.506, 23.6155]}, "properties": {"id": "GAIA-05", "group": "existing", "layer": "gaia", "network": "GAIA A12 (aqicn)", "operator": "DoE + World Air Quality Index project", "name": "Khanpur Hospital", "city": "Narayanganj", "division": "Dhaka", "monitor_type": "low-cost", "coord_precision": "approx", "source_url": "https://aqicn.org/network/doebd/", "notes": "Khanpur 300-bed hospital area"}}, {"type": "Feature", "geometry": {"type": "Point", "coordinates": [90.279794, 23.953704]}, "properties": {"id": "GAIA-06", "group": "existing", "layer": "gaia", "network": "GAIA A12 (aqicn)", "operator": "DoE + World Air Quality Index project", "name": "Atomic Energy Research Institute", "city": "Savar", "division": "Dhaka", "monitor_type": "low-cost", "coord_precision": "approx", "source_url": "https://aqicn.org/network/doebd/", "notes": "Co-located at CAMS-14"}}, {"type": "Feature", "geometry": {"type": "Point", "coordinates": [90.716598, 23.932456]}, "properties": {"id": "GAIA-07", "group": "existing", "layer": "gaia", "network": "GAIA A12 (aqicn)", "operator": "DoE + World Air Quality Index project", "name": "Narsingdi Sadar Upazila Complex", "city": "Narsingdi", "division": "Dhaka", "monitor_type": "low-cost", "coord_precision": "approx", "source_url": "https://aqicn.org/network/doebd/", "notes": "Co-located at CAMS-15"}}, {"type": "Feature", "geometry": {"type": "Point", "coordinates": [91.800454, 22.360487]}, "properties": {"id": "GAIA-08", "group": "existing", "layer": "gaia", "network": "GAIA A12 (aqicn)", "operator": "DoE + World Air Quality Index project", "name": "Bangladesh Television Chattogram Center", "city": "Chattogram", "division": "Chattogram", "monitor_type": "low-cost", "coord_precision": "approx", "source_url": "https://aqicn.org/network/doebd/", "notes": "Khulshi, co-located at CAMS-6"}}, {"type": "Feature", "geometry": {"type": "Point", "coordinates": [91.802336, 22.32302]}, "properties": {"id": "GAIA-09", "group": "existing", "layer": "gaia", "network": "GAIA A12 (aqicn)", "operator": "DoE + World Air Quality Index project", "name": "Agrabad CDA Residential Area", "city": "Chattogram", "division": "Chattogram", "monitor_type": "low-cost", "coord_precision": "approx", "source_url": "https://aqicn.org/network/doebd/", "notes": "Co-located at CAMS-7"}}, {"type": "Feature", "geometry": {"type": "Point", "coordinates": [91.180671, 23.472988]}, "properties": {"id": "GAIA-10", "group": "existing", "layer": "gaia", "network": "GAIA A12 (aqicn)", "operator": "DoE + World Air Quality Index project", "name": "Department of Environment", "city": "Cumilla", "division": "Chattogram", "monitor_type": "low-cost", "coord_precision": "approx", "source_url": "https://aqicn.org/network/doebd/", "notes": "Co-located at CAMS-16"}}, {"type": "Feature", "geometry": {"type": "Point", "coordinates": [89.529056, 22.835775]}, "properties": {"id": "GAIA-11", "group": "existing", "layer": "gaia", "network": "GAIA A12 (aqicn)", "operator": "DoE + World Air Quality Index project", "name": "Jalil Sarani Boyra", "city": "Khulna", "division": "Khulna", "monitor_type": "low-cost", "coord_precision": "approx", "source_url": "https://aqicn.org/network/doebd/", "notes": "Co-located at CAMS-8"}}, {"type": "Feature", "geometry": {"type": "Point", "coordinates": [88.62, 24.4]}, "properties": {"id": "GAIA-12", "group": "existing", "layer": "gaia", "network": "GAIA A12 (aqicn)", "operator": "DoE + World Air Quality Index project", "name": "Divisional Forest Officer Office Paba", "city": "Rajshahi", "division": "Rajshahi", "monitor_type": "low-cost", "coord_precision": "approx", "source_url": "https://aqicn.org/station/bangladesh-paba-upazila-divisional-forest-officer-office/", "notes": "Salbagan Power House, Airport Rd, Paba Upazila"}}, {"type": "Feature", "geometry": {"type": "Point", "coordinates": [91.867347, 24.888334]}, "properties": {"id": "GAIA-13", "group": "existing", "layer": "gaia", "network": "GAIA A12 (aqicn)", "operator": "DoE + World Air Quality Index project", "name": "Bangladesh Red Crescent Society", "city": "Sylhet", "division": "Sylhet", "monitor_type": "low-cost", "coord_precision": "approx", "source_url": "https://aqicn.org/network/doebd/", "notes": "South Surma; near CAMS-10"}}, {"type": "Feature", "geometry": {"type": "Point", "coordinates": [90.362598, 22.710287]}, "properties": {"id": "GAIA-14", "group": "existing", "layer": "gaia", "network": "GAIA A12 (aqicn)", "operator": "DoE + World Air Quality Index project", "name": "Divisional Forest Officer Office", "city": "Barishal", "division": "Barishal", "monitor_type": "low-cost", "coord_precision": "approx", "source_url": "https://aqicn.org/network/doebd/", "notes": "Co-located at CAMS-11"}}, {"type": "Feature", "geometry": {"type": "Point", "coordinates": [89.228931, 25.747371]}, "properties": {"id": "GAIA-15", "group": "existing", "layer": "gaia", "network": "GAIA A12 (aqicn)", "operator": "DoE + World Air Quality Index project", "name": "Bangladesh Television Rangpur Subcenter", "city": "Rangpur", "division": "Rangpur", "monitor_type": "low-cost", "coord_precision": "approx", "source_url": "https://aqicn.org/network/doebd/", "notes": "Co-located at CAMS-13"}}, {"type": "Feature", "geometry": {"type": "Point", "coordinates": [90.402102, 24.762458]}, "properties": {"id": "GAIA-16", "group": "existing", "layer": "gaia", "network": "GAIA A12 (aqicn)", "operator": "DoE + World Air Quality Index project", "name": "Department of Environment", "city": "Mymensingh", "division": "Mymensingh", "monitor_type": "low-cost", "coord_precision": "approx", "source_url": "https://aqicn.org/network/doebd/", "notes": "Co-located at CAMS-12"}}, {"type": "Feature", "geometry": {"type": "Point", "coordinates": [90.392797, 23.727591]}, "properties": {"id": "GAIA-17", "group": "existing", "layer": "gaia", "network": "GAIA A12 (aqicn)", "operator": "DoE + World Air Quality Index project", "name": "BUET Campus", "city": "Dhaka", "division": "Dhaka", "monitor_type": "low-cost", "coord_precision": "approx", "source_url": "https://aqicn.org/network/doebd/", "notes": "Co-located near C-CAMS-25"}}, {"type": "Feature", "geometry": {"type": "Point", "coordinates": [90.38, 23.8755]}, "properties": {"id": "COMM-01", "group": "existing", "layer": "community", "network": "aqicn AirNet community", "operator": "AirGradient Co. Ltd.", "name": "RAJUK Uttara Apartment Project Sector 18", "city": "Dhaka", "division": "Dhaka", "monitor_type": "low-cost", "coord_precision": "approx", "source_url": "https://aqicn.org/station/country/bd/bangladesh/", "notes": "AirGradient community monitor, Uttara"}}, {"type": "Feature", "geometry": {"type": "Point", "coordinates": [89.573, 22.8]}, "properties": {"id": "COMM-02", "group": "existing", "layer": "community", "network": "aqicn AirNet community", "operator": "ww-khulna", "name": "Rupsha Strand Road", "city": "Khulna", "division": "Khulna", "monitor_type": "low-cost", "coord_precision": "approx", "source_url": "https://aqicn.org/station/country/bd/bangladesh/", "notes": "Community monitor"}}, {"type": "Feature", "geometry": {"type": "Point", "coordinates": [90.2673, 23.8825]}, "properties": {"id": "COMM-03", "group": "existing", "layer": "community", "network": "aqicn AirNet community", "operator": "Jahangirnagar University", "name": "Jahangirnagar University", "city": "Savar", "division": "Dhaka", "monitor_type": "low-cost", "coord_precision": "approx", "source_url": "https://aqicn.org/station/country/bd/bangladesh/", "notes": "University campus monitor"}}, {"type": "Feature", "geometry": {"type": "Point", "coordinates": [90.4145, 23.7946]}, "properties": {"id": "COMM-04", "group": "existing", "layer": "community", "network": "aqicn AirNet community", "operator": "Community", "name": "Gulshan-2 Rob Bhaban", "city": "Dhaka", "division": "Dhaka", "monitor_type": "low-cost", "coord_precision": "approx", "source_url": "https://aqicn.org/station/@469258/", "notes": "Community monitor, Gulshan-2"}}, {"type": "Feature", "geometry": {"type": "Point", "coordinates": [90.388, 23.7266]}, "properties": {"id": "COMM-05", "group": "existing", "layer": "community", "network": "aqicn AirNet community", "operator": "BUET", "name": "BUET Azimpur", "city": "Dhaka", "division": "Dhaka", "monitor_type": "low-cost", "coord_precision": "approx", "source_url": "https://aqicn.org/station/country/bd/bangladesh/", "notes": "University community monitor"}}, {"type": "Feature", "geometry": {"type": "Point", "coordinates": [90.4267, 23.7975]}, "properties": {"id": "PA-01", "group": "existing", "layer": "purpleair", "network": "PurpleAir", "operator": "DoE / research groups (UW-BUET and others)", "name": "PurpleAir Dhaka cluster (US Embassy collocation)", "city": "Dhaka", "division": "Dhaka", "monitor_type": "low-cost", "coord_precision": "approx", "source_url": "https://map.purpleair.com/bangladesh", "notes": "Representative point; ~17 DoE-operated PA-II units + research clusters, see live map for current sensors"}}, {"type": "Feature", "geometry": {"type": "Point", "coordinates": [90.2667, 23.8583]}, "properties": {"id": "IQA-01", "group": "existing", "layer": "iqair", "network": "IQAir contributor", "operator": "Anonymous contributor", "name": "Savar monitor", "city": "Savar", "division": "Dhaka", "monitor_type": "low-cost", "coord_precision": "approx", "source_url": "https://www.iqair.com/bangladesh", "notes": "City-level approximation"}}, {"type": "Feature", "geometry": {"type": "Point", "coordinates": [90.1758, 24.4425]}, "properties": {"id": "IQA-02", "group": "existing", "layer": "iqair", "network": "IQAir contributor", "operator": "Anonymous contributor", "name": "Sakhipur monitor", "city": "Sakhipur", "division": "Dhaka", "monitor_type": "low-cost", "coord_precision": "approx", "source_url": "https://www.iqair.com/bangladesh", "notes": "City-level approximation"}}, {"type": "Feature", "geometry": {"type": "Point", "coordinates": [89.9167, 24.2513]}, "properties": {"id": "IQA-03", "group": "existing", "layer": "iqair", "network": "IQAir contributor", "operator": "Anonymous contributor", "name": "Tangail monitor", "city": "Tangail", "division": "Dhaka", "monitor_type": "low-cost", "coord_precision": "approx", "source_url": "https://www.iqair.com/bangladesh", "notes": "City-level approximation"}}, {"type": "Feature", "geometry": {"type": "Point", "coordinates": [90.0977, 24.1025]}, "properties": {"id": "IQA-04", "group": "existing", "layer": "iqair", "network": "IQAir contributor", "operator": "Anonymous contributor", "name": "Mirzapur monitor", "city": "Mirzapur", "division": "Dhaka", "monitor_type": "low-cost", "coord_precision": "approx", "source_url": "https://www.iqair.com/bangladesh", "notes": "City-level approximation"}}, {"type": "Feature", "geometry": {"type": "Point", "coordinates": [89.8862, 24.0574]}, "properties": {"id": "IQA-05", "group": "existing", "layer": "iqair", "network": "IQAir contributor", "operator": "Anonymous contributor", "name": "Nagarpur monitor", "city": "Nagarpur", "division": "Dhaka", "monitor_type": "low-cost", "coord_precision": "approx", "source_url": "https://www.iqair.com/bangladesh", "notes": "City-level approximation"}}, {"type": "Feature", "geometry": {"type": "Point", "coordinates": [90.4842, 24.2]}, "properties": {"id": "IQA-06", "group": "existing", "layer": "iqair", "network": "IQAir contributor", "operator": "Anonymous contributor", "name": "Sreepur monitor", "city": "Sreepur", "division": "Dhaka", "monitor_type": "low-cost", "coord_precision": "approx", "source_url": "https://www.iqair.com/bangladesh", "notes": "City-level approximation"}}, {"type": "Feature", "geometry": {"type": "Point", "coordinates": [90.782, 24.426]}, "properties": {"id": "IQA-07", "group": "existing", "layer": "iqair", "network": "IQAir contributor", "operator": "Anonymous contributor", "name": "Kishoreganj monitor", "city": "Kishoreganj", "division": "Dhaka", "monitor_type": "low-cost", "coord_precision": "approx", "source_url": "https://www.iqair.com/bangladesh", "notes": "City-level approximation"}}, {"type": "Feature", "geometry": {"type": "Point", "coordinates": [90.0003, 23.8617]}, "properties": {"id": "IQA-08", "group": "existing", "layer": "iqair", "network": "IQAir contributor", "operator": "Anonymous contributor", "name": "Manikganj monitor", "city": "Manikganj", "division": "Dhaka", "monitor_type": "low-cost", "coord_precision": "approx", "source_url": "https://www.iqair.com/bangladesh", "notes": "City-level approximation"}}, {"type": "Feature", "geometry": {"type": "Point", "coordinates": [90.3929, 23.734]}, "properties": {"id": "SPART-1", "group": "existing", "layer": "spartan", "network": "SPARTAN", "operator": "SPARTAN network / Dhaka University", "name": "SPARTAN Dhaka site", "city": "Dhaka", "division": "Dhaka", "monitor_type": "reference", "coord_precision": "approx", "source_url": "https://www.spartan-network.org", "notes": "Filter-based PM2.5 chemical speciation site, Dhaka University campus"}}]}